OBJECT_NAME,OBJECT_ID,EPOCH,MEAN_MOTION,ECCENTRICITY,INCLINATION,RA_OF_ASC_NODE,ARG_OF_PERICENTER,MEAN_ANOMALY,EPHEMERIS_TYPE,CLASSIFICATION_TYPE,NORAD_CAT_ID,ELEMENT_SET_NO,REV_AT_EPOCH,BSTAR,MEAN_MOTION_DOT,MEAN_MOTION_DDOT
ONEWEB-0053,2020-008AC,2026-06-17T02:58:47.817984,13.10403787,.00025566,87.8836,36.3014,72.5685,287.5722,0,U,45157,999,30790,.72833888E-2,.2557E-4,0
ONEWEB-0054,2020-008AD,2026-06-17T14:48:49.134240,13.10371441,.00019128,87.8840,36.1819,85.0187,275.1159,0,U,45158,999,30808,.8734742E-3,.318E-5,0
ONEWEB-0056,2020-008AE,2026-06-17T03:08:09.774816,13.10415992,.00024935,87.8828,36.2762,84.6358,275.5054,0,U,45159,999,30817,.10887811E-1,.3817E-4,0
ONEWEB-0057,2020-008AF,2026-06-17T14:32:16.220256,13.10376077,.00021233,87.8840,36.1899,70.6201,289.5156,0,U,45160,999,30840,.65783521E-3,.242E-5,0
ONEWEB-0058,2020-008AG,2026-06-17T03:13:24.282912,13.10375684,.00015641,87.8832,36.2900,83.7840,276.3466,0,U,45161,999,30841,-.92578573E-3,-.311E-5,0
ONEWEB-0059,2020-008AH,2026-06-17T03:08:36.718656,13.10378898,.00016385,87.8833,36.2897,77.1649,282.9662,0,U,45162,999,30831,-.2578887E-3,-.77E-6,0
ONEWEB-0062,2020-008AJ,2026-06-17T14:41:26.590848,13.10375358,.00015158,87.8839,36.1809,93.4369,266.6932,0,U,45163,999,30824,.13741567E-2,.492E-5,0
ONEWEB-0065,2020-008AK,2026-06-17T02:39:41.823072,13.10292679,.00022995,87.8826,36.2896,85.1255,275.0134,0,U,45164,999,30787,-.26007753E-1,-.9047E-4,0
ONEWEB-0066,2020-020A,2026-06-17T14:30:25.888320,13.11413940,.00016742,87.8884,20.9880,81.5336,278.5981,0,U,45424,999,30273,-.69810256E-3,-.235E-5,0
ONEWEB-0067,2020-020B,2026-06-17T11:45:15.799680,13.11425895,.00019609,87.8906,20.9329,81.8849,278.2502,0,U,45425,999,30277,.82434966E-3,.305E-5,0
ONEWEB-0080,2020-020C,2026-06-17T02:35:17.398464,13.11418691,.00015988,87.8897,21.0833,93.5457,266.5854,0,U,45426,999,30269,.86453947E-3,.319E-5,0
ONEWEB-0090,2020-020D,2026-06-17T12:26:07.683072,13.11413822,.00017756,87.8893,21.0061,87.8658,272.2673,0,U,45427,999,30271,.28232246E-3,.113E-5,0
ONEWEB-0061,2020-020E,2026-06-17T13:12:05.946912,13.11417821,.00017666,87.8891,20.9846,85.3107,274.8223,0,U,45428,999,30267,-.15797445E-2,-.547E-5,0
ONEWEB-0081,2020-020F,2026-06-17T14:35:18.749760,13.11414477,.00017862,87.8888,20.9832,79.0302,281.1026,0,U,45429,999,30279,-.12063207E-2,-.415E-5,0
ONEWEB-0069,2020-020G,2026-06-17T14:37:56.855712,13.11414218,.0001815,87.8891,20.9856,82.9857,277.1477,0,U,45430,999,30272,-.12815105E-2,-.441E-5,0
ONEWEB-0031,2020-020H,2026-06-17T11:49:18.486048,13.11419234,.00017158,87.8884,21.0142,90.3893,269.7432,0,U,45431,999,30269,.10377521E-2,.381E-5,0
ONEWEB-0027,2020-020J,2026-06-17T16:00:01.999584,13.17672843,.00020044,87.9136,5.7691,105.1867,17.4103,0,U,45432,999,515,-.11746364E+0,-.45384E-3,0
ONEWEB-0064,2020-020K,2026-06-17T02:37:32.235168,13.11417863,.00017927,87.8889,21.0822,91.8935,268.2399,0,U,45433,999,30267,.10858724E-2,.398E-5,0
ONEWEB-0018,2020-020L,2026-06-17T14:22:55.633728,13.11416919,.00014306,87.8886,20.9841,79.0381,281.0908,0,U,45434,999,30268,-.23210998E-3,-.7E-6,0
ONEWEB-0083,2020-020M,2026-06-17T12:18:49.019040,13.11415193,.00017463,87.8891,20.9950,86.9203,273.2125,0,U,45435,999,30271,.87085875E-3,.321E-5,0
ONEWEB-0095,2020-020N,2026-06-17T12:06:36.561312,13.11421182,.00024784,87.8894,21.0053,92.4722,267.6689,0,U,45436,999,30271,.14349556E-2,.521E-5,0
ONEWEB-0092,2020-020P,2026-06-17T14:40:11.332128,13.11421568,.00021321,87.8891,20.9756,83.8866,276.2505,0,U,45437,999,30284,-.14509436E-2,-.502E-5,0
ONEWEB-0085,2020-020Q,2026-06-17T12:18:24.992928,13.11414682,.00018127,87.8886,21.0019,85.7342,274.3993,0,U,45438,999,30271,.1016439E-2,.373E-5,0
ONEWEB-0096,2020-020R,2026-06-17T12:21:02.422368,13.11421401,.00018764,87.8893,20.9974,87.9233,272.2109,0,U,45439,999,30270,.79848211E-3,.296E-5,0
ONEWEB-0037,2020-020S,2026-06-17T13:08:47.474016,13.11913660,.00018955,87.8905,20.9644,85.7506,274.3839,0,U,45440,999,30274,-.11868343E-2,-.411E-5,0
ONEWEB-0042,2020-020T,2026-06-17T12:06:12.881664,13.11415539,.00018306,87.8892,20.9957,82.1510,277.9826,0,U,45441,999,30270,.13729818E-2,.499E-5,0
ONEWEB-0098,2020-020U,2026-06-17T12:00:18.366048,13.11417423,.00017658,87.8891,21.0060,87.2645,272.8685,0,U,45442,999,30268,.13804603E-2,.502E-5,0
ONEWEB-0055,2020-020V,2026-06-17T13:19:27.501024,13.11419054,.00017607,87.8894,20.9938,87.6342,272.4987,0,U,45443,999,30266,-.63442686E-3,-.212E-5,0
ONEWEB-0093,2020-020W,2026-06-17T14:40:23.428992,13.11415139,.00019006,87.8893,20.9753,73.0816,287.0520,0,U,45444,999,30273,-.13627896E-2,-.47E-5,0
ONEWEB-0029,2020-020X,2026-06-17T11:39:43.449120,13.11418775,.00017116,87.8886,21.0097,77.1360,282.9959,0,U,45445,999,30269,-.60513544E-3,-.202E-5,0
