ONEWEB-0053             
1 45157U 20008AC  26168.12416456  .00002557  00000+0  72834-2 0  9998
2 45157  87.8836  36.3014 0002556  72.5685 287.5722 13.10403787307908
ONEWEB-0054             
1 45158U 20008AD  26168.61723535  .00000318  00000+0  87347-3 0  9991
2 45158  87.8840  36.1819 0001912  85.0187 275.1159 13.10371441308084
ONEWEB-0056             
1 45159U 20008AE  26168.13066869  .00003817  00000+0  10888-1 0  9990
2 45159  87.8828  36.2762 0002493  84.6358 275.5054 13.10415992308177
ONEWEB-0057             
1 45160U 20008AF  26168.60574329  .00000242  00000+0  65784-3 0  9995
2 45160  87.8840  36.1899 0002123  70.6201 289.5156 13.10376077308409
ONEWEB-0058             
1 45161U 20008AG  26168.13430883 -.00000311  00000+0 -92579-3 0  9991
2 45161  87.8832  36.2900 0001564  83.7840 276.3466 13.10375684308419
ONEWEB-0059             
1 45162U 20008AH  26168.13098054 -.00000077  00000+0 -25789-3 0  9990
2 45162  87.8833  36.2897 0001638  77.1649 282.9662 13.10378898308312
ONEWEB-0062             
1 45163U 20008AJ  26168.61211332  .00000492  00000+0  13742-2 0  9994
2 45163  87.8839  36.1809 0001515  93.4369 266.6932 13.10375358308244
ONEWEB-0065             
1 45164U 20008AK  26168.11090073 -.00009047  00000+0 -26008-1 0  9992
2 45164  87.8826  36.2896 0002299  85.1255 275.0134 13.10292679307870
ONEWEB-0066             
1 45424U 20020A   26168.60446630 -.00000235  00000+0 -69810-3 0  9993
2 45424  87.8884  20.9880 0001674  81.5336 278.5981 13.11413940302737
ONEWEB-0067             
1 45425U 20020B   26168.48976620  .00000305  00000+0  82435-3 0  9991
2 45425  87.8906  20.9329 0001960  81.8849 278.2502 13.11425895302773
ONEWEB-0080             
1 45426U 20020C   26168.10784026  .00000319  00000+0  86454-3 0  9998
2 45426  87.8897  21.0833 0001598  93.5457 266.5854 13.11418691302694
ONEWEB-0090             
1 45427U 20020D   26168.51814448  .00000113  00000+0  28232-3 0  9998
2 45427  87.8893  21.0061 0001775  87.8658 272.2673 13.11413822302717
ONEWEB-0061             
1 45428U 20020E   26168.55006883 -.00000547  00000+0 -15797-2 0  9993
2 45428  87.8891  20.9846 0001766  85.3107 274.8223 13.11417821302674
ONEWEB-0081             
1 45429U 20020F   26168.60785590 -.00000415  00000+0 -12063-2 0  9996
2 45429  87.8888  20.9832 0001786  79.0302 281.1026 13.11414477302794
ONEWEB-0069             
1 45430U 20020G   26168.60968583 -.00000441  00000+0 -12815-2 0  9997
2 45430  87.8891  20.9856 0001815  82.9857 277.1477 13.11414218302728
ONEWEB-0031             
1 45431U 20020H   26168.49257507  .00000381  00000+0  10378-2 0  9995
2 45431  87.8884  21.0142 0001715  90.3893 269.7432 13.11419234302690
ONEWEB-0027             
1 45432U 20020J   26168.66668981 -.00045384  00000+0 -11746+0 0  9998
2 45432  87.9136   5.7691 0002004 105.1867  17.4103 13.17672843  5155
ONEWEB-0064             
1 45433U 20020K   26168.10940087  .00000398  00000+0  10859-2 0  9999
2 45433  87.8889  21.0822 0001792  91.8935 268.2399 13.11417863302670
ONEWEB-0018             
1 45434U 20020L   26168.59925502 -.00000070  00000+0 -23211-3 0  9994
2 45434  87.8886  20.9841 0001430  79.0381 281.0908 13.11416919302680
ONEWEB-0083             
1 45435U 20020M   26168.51306735  .00000321  00000+0  87086-3 0  9995
2 45435  87.8891  20.9950 0001746  86.9203 273.2125 13.11415193302719
ONEWEB-0095             
1 45436U 20020N   26168.50458983  .00000521  00000+0  14350-2 0  9993
2 45436  87.8894  21.0053 0002478  92.4722 267.6689 13.11421182302717
ONEWEB-0092             
1 45437U 20020P   26168.61124227 -.00000502  00000+0 -14509-2 0  9994
2 45437  87.8891  20.9756 0002132  83.8866 276.2505 13.11421568302848
ONEWEB-0085             
1 45438U 20020Q   26168.51278927  .00000373  00000+0  10164-2 0  9998
2 45438  87.8886  21.0019 0001812  85.7342 274.3993 13.11414682302716
ONEWEB-0096             
1 45439U 20020R   26168.51461137  .00000296  00000+0  79848-3 0  9995
2 45439  87.8893  20.9974 0001876  87.9233 272.2109 13.11421401302708
ONEWEB-0037             
1 45440U 20020S   26168.54777169 -.00000411  00000+0 -11868-2 0  9993
2 45440  87.8905  20.9644 0001895  85.7506 274.3839 13.11913660302748
ONEWEB-0042             
1 45441U 20020T   26168.50431576  .00000499  00000+0  13730-2 0  9993
2 45441  87.8892  20.9957 0001830  82.1510 277.9826 13.11415539302709
ONEWEB-0098             
1 45442U 20020U   26168.50021257  .00000502  00000+0  13805-2 0  9993
2 45442  87.8891  21.0060 0001765  87.2645 272.8685 13.11417423302686
ONEWEB-0055             
1 45443U 20020V   26168.55517941 -.00000212  00000+0 -63443-3 0  9993
2 45443  87.8894  20.9938 0001760  87.6342 272.4987 13.11419054302666
ONEWEB-0093             
1 45444U 20020W   26168.61138228 -.00000470  00000+0 -13628-2 0  9993
2 45444  87.8893  20.9753 0001900  73.0816 287.0520 13.11415139302735
ONEWEB-0029             
1 45445U 20020X   26168.48591955 -.00000202  00000+0 -60514-3 0  9999
2 45445  87.8886  21.0097 0001711  77.1360 282.9959 13.11418775302694
